start=new Date('2022-04-26T00:00:00.000Z').valueOf();
sats=[{"RA_OF_ASC_NODE":"88.2780","PERIAPSIS":"545.842","GP_ID":"202027640","TLE_LINE2":"2 48031  53.0548  88.2780 0002026  47.5849 329.0475 15.06389855  3613","RCS_SIZE":"LARGE","TLE_LINE1":"1 48031U 21024BG  22115.91667824  .00033659  00000-0  22684-2 0  9999","OBJECT_NAME":"STARLINK-2267","MEAN_ANOMALY":"329.0475","CENTER_NAME":"EARTH","MEAN_MOTION_DOT":"0.00033659","TIME_SYSTEM":"UTC","DECAY_DATE":null,"APOAPSIS":"548.648","MEAN_MOTION":"15.06389855","SITE":"AFETR","FILE":"3416090","CLASSIFICATION_TYPE":"U","OBJECT_TYPE":"PAYLOAD","EPHEMERIS_TYPE":"0","COUNTRY_CODE":"US","MEAN_ELEMENT_THEORY":"SGP4","MEAN_MOTION_DDOT":"0.0000000000000","LAUNCH_DATE":"2021-03-24","BSTAR":"0.00226840000000","EPOCH":"2022-04-25T22:00:00.999936","ECCENTRICITY":"0.00020260","ELEMENT_SET_NO":"999","PERIOD":"95.593","REF_FRAME":"TEME","INCLINATION":"53.0548","ARG_OF_PERICENTER":"47.5849","NORAD_CAT_ID":"48031","OBJECT_ID":"2021-024BG","SEMIMAJOR_AXIS":"6925.380","REV_AT_EPOCH":"361"},{"RCS_SIZE":"LARGE","GP_ID":"202027890","TLE_LINE2":"2 48033  53.0596 199.5281 0001531  54.8596 305.2537 15.06389965 61509","PERIAPSIS":"546.184","RA_OF_ASC_NODE":"199.5281","DECAY_DATE":null,"TIME_SYSTEM":"UTC","MEAN_MOTION_DOT":"0.00000254","CENTER_NAME":"EARTH","MEAN_ANOMALY":"305.2537","OBJECT_NAME":"STARLINK-2286","TLE_LINE1":"1 48033U 21024BJ  22115.63811013  .00000254  00000-0  35931-4 0  9997","CLASSIFICATION_TYPE":"U","FILE":"3416090","SITE":"AFETR","MEAN_MOTION":"15.06389965","APOAPSIS":"548.305","EPHEMERIS_TYPE":"0","OBJECT_TYPE":"PAYLOAD","MEAN_MOTION_DDOT":"0.0000000000000","MEAN_ELEMENT_THEORY":"SGP4","COUNTRY_CODE":"US","ELEMENT_SET_NO":"999","ECCENTRICITY":"0.00015310","EPOCH":"2022-04-25T15:18:52.715232","LAUNCH_DATE":"2021-03-24","BSTAR":"0.00003593100000","ARG_OF_PERICENTER":"54.8596","INCLINATION":"53.0596","REF_FRAME":"TEME","PERIOD":"95.593","REV_AT_EPOCH":"6150","SEMIMAJOR_AXIS":"6925.379","OBJECT_ID":"2021-024BJ","NORAD_CAT_ID":"48033"},{"OBJECT_TYPE":"PAYLOAD","EPHEMERIS_TYPE":"0","APOAPSIS":"548.518","MEAN_MOTION":"15.06384181","CLASSIFICATION_TYPE":"U","SITE":"AFETR","FILE":"3415659","TLE_LINE1":"1 48034U 21024BK  22115.52384933 -.00000096  00000-0  12462-4 0  9991","OBJECT_NAME":"STARLINK-2288","MEAN_ANOMALY":"311.0934","MEAN_MOTION_DOT":"-0.00000096","TIME_SYSTEM":"UTC","CENTER_NAME":"EARTH","DECAY_DATE":null,"PERIAPSIS":"546.006","RA_OF_ASC_NODE":"200.0581","TLE_LINE2":"2 48034  53.0544 200.0581 0001813  49.0212 311.0934 15.06384181 61486","GP_ID":"201992671","RCS_SIZE":"LARGE","NORAD_CAT_ID":"48034","OBJECT_ID":"2021-024BK","SEMIMAJOR_AXIS":"6925.397","REV_AT_EPOCH":"6148","PERIOD":"95.593","ARG_OF_PERICENTER":"49.0212","INCLINATION":"53.0544","REF_FRAME":"TEME","BSTAR":"0.00001246200000","LAUNCH_DATE":"2021-03-24","EPOCH":"2022-04-25T12:34:20.582112","ECCENTRICITY":"0.00018130","ELEMENT_SET_NO":"999","COUNTRY_CODE":"US","MEAN_ELEMENT_THEORY":"SGP4","MEAN_MOTION_DDOT":"0.0000000000000"},{"REV_AT_EPOCH":"6148","SEMIMAJOR_AXIS":"6925.362","OBJECT_ID":"2021-024BM","NORAD_CAT_ID":"48036","REF_FRAME":"TEME","INCLINATION":"53.0548","ARG_OF_PERICENTER":"40.9995","PERIOD":"95.592","ELEMENT_SET_NO":"999","ECCENTRICITY":"0.00018030","EPOCH":"2022-04-25T12:44:56.865408","LAUNCH_DATE":"2021-03-24","BSTAR":"-0.00000629340000","MEAN_MOTION_DDOT":"0.0000000000000","MEAN_ELEMENT_THEORY":"SGP4","COUNTRY_CODE":"US","EPHEMERIS_TYPE":"0","OBJECT_TYPE":"PAYLOAD","FILE":"3415659","SITE":"AFETR","CLASSIFICATION_TYPE":"U","MEAN_MOTION":"15.06395534","APOAPSIS":"548.476","DECAY_DATE":null,"CENTER_NAME":"EARTH","MEAN_MOTION_DOT":"-0.00000375","TIME_SYSTEM":"UTC","OBJECT_NAME":"STARLINK-2295","MEAN_ANOMALY":"319.1129","TLE_LINE1":"1 48036U 21024BM  22115.53121372 -.00000375  00000-0 -62934-5 0  9991","RCS_SIZE":"LARGE","GP_ID":"201993917","TLE_LINE2":"2 48036  53.0548 200.0286 0001803  40.9995 319.1129 15.06395534 61480","RA_OF_ASC_NODE":"200.0286","PERIAPSIS":"545.979"},{"COUNTRY_CODE":"US","MEAN_ELEMENT_THEORY":"SGP4","MEAN_MOTION_DDOT":"0.0000000000000","BSTAR":"0.00006515800000","LAUNCH_DATE":"2021-04-07","EPOCH":"2022-04-25T17:00:20.849760","ECCENTRICITY":"0.00014700","ELEMENT_SET_NO":"999","PERIOD":"95.592","INCLINATION":"53.0538","ARG_OF_PERICENTER":"82.9598","REF_FRAME":"TEME","NORAD_CAT_ID":"48092","OBJECT_ID":"2021-027A","SEMIMAJOR_AXIS":"6925.360","REV_AT_EPOCH":"6034","PERIAPSIS":"546.207","RA_OF_ASC_NODE":"324.2343","TLE_LINE2":"2 48092  53.0538 324.2343 0001470  82.9598 277.1558 15.06396335 60342","GP_ID":"202027396","RCS_SIZE":"LARGE","TLE_LINE1":"1 48092U 21027A   22115.70857465  .00000689  00000-0  65158-4 0  9990","OBJECT_NAME":"STARLINK-2048","MEAN_ANOMALY":"277.1558","MEAN_MOTION_DOT":"0.00000689","TIME_SYSTEM":"UTC","CENTER_NAME":"EARTH","DECAY_DATE":null,"APOAPSIS":"548.243","MEAN_MOTION":"15.06396335","CLASSIFICATION_TYPE":"U","FILE":"3416090","SITE":"AFETR","OBJECT_TYPE":"PAYLOAD","EPHEMERIS_TYPE":"0"},{"APOAPSIS":"548.301","MEAN_MOTION":"15.06390390","CLASSIFICATION_TYPE":"U","SITE":"AFETR","FILE":"3415659","OBJECT_TYPE":"PAYLOAD","EPHEMERIS_TYPE":"0","PERIAPSIS":"546.186","RA_OF_ASC_NODE":"30.2599","TLE_LINE2":"2 48093  53.0560  30.2599 0001527  68.2355 291.8796 15.06390390 59403","GP_ID":"201993172","RCS_SIZE":"LARGE","TLE_LINE1":"1 48093U 21027B   22115.47959091  .00001031  00000-0  88149-4 0  9990","OBJECT_NAME":"STARLINK-2404","MEAN_ANOMALY":"291.8796","TIME_SYSTEM":"UTC","MEAN_MOTION_DOT":"0.00001031","CENTER_NAME":"EARTH","DECAY_DATE":null,"PERIOD":"95.593","ARG_OF_PERICENTER":"68.2355","INCLINATION":"53.0560","REF_FRAME":"TEME","NORAD_CAT_ID":"48093","OBJECT_ID":"2021-027B","SEMIMAJOR_AXIS":"6925.378","REV_AT_EPOCH":"5940","COUNTRY_CODE":"US","MEAN_ELEMENT_THEORY":"SGP4","MEAN_MOTION_DDOT":"0.0000000000000","LAUNCH_DATE":"2021-04-07","BSTAR":"0.00008814900000","EPOCH":"2022-04-25T11:30:36.654624","ECCENTRICITY":"0.00015270","ELEMENT_SET_NO":"999"},{"SEMIMAJOR_AXIS":"6925.381","REV_AT_EPOCH":"5931","NORAD_CAT_ID":"48094","OBJECT_ID":"2021-027C","ARG_OF_PERICENTER":"56.9710","INCLINATION":"53.0573","REF_FRAME":"TEME","PERIOD":"95.593","ECCENTRICITY":"0.00012550","ELEMENT_SET_NO":"999","LAUNCH_DATE":"2021-04-07","BSTAR":"0.00011600000000","EPOCH":"2022-04-25T18:45:52.555392","MEAN_MOTION_DDOT":"0.0000000000000","COUNTRY_CODE":"US","MEAN_ELEMENT_THEORY":"SGP4","OBJECT_TYPE":"PAYLOAD","EPHEMERIS_TYPE":"0","MEAN_MOTION":"15.06389318","CLASSIFICATION_TYPE":"U","FILE":"3416090","SITE":"AFETR","APOAPSIS":"548.115","TIME_SYSTEM":"UTC","MEAN_MOTION_DOT":"0.00001446","CENTER_NAME":"EARTH","DECAY_DATE":null,"TLE_LINE1":"1 48094U 21027C   22115.78185828  .00001446  00000-0  11600-3 0  9991","OBJECT_NAME":"STARLINK-2412","MEAN_ANOMALY":"303.1399","RCS_SIZE":"LARGE","PERIAPSIS":"546.377","RA_OF_ASC_NODE":"38.9040","TLE_LINE2":"2 48094  53.0573  38.9040 0001255  56.9710 303.1399 15.06389318 59315","GP_ID":"202026900"},{"ARG_OF_PERICENTER":"60.5520","INCLINATION":"53.0550","REF_FRAME":"TEME","PERIOD":"95.593","REV_AT_EPOCH":"5932","SEMIMAJOR_AXIS":"6925.378","OBJECT_ID":"2021-027D","NORAD_CAT_ID":"48095","MEAN_MOTION_DDOT":"0.0000000000000","MEAN_ELEMENT_THEORY":"SGP4","COUNTRY_CODE":"US","ELEMENT_SET_NO":"999","ECCENTRICITY":"0.00015050","EPOCH":"2022-04-25T18:56:29.314752","LAUNCH_DATE":"2021-04-07","BSTAR":"-0.00008114200000","CLASSIFICATION_TYPE":"U","FILE":"3416090","SITE":"AFETR","MEAN_MOTION":"15.06390369","APOAPSIS":"548.285","EPHEMERIS_TYPE":"0","OBJECT_TYPE":"PAYLOAD","RCS_SIZE":"MEDIUM","GP_ID":"202027647","TLE_LINE2":"2 48095  53.0550  38.8677 0001505  60.5520 299.5619 15.06390369 59326","PERIAPSIS":"546.201","RA_OF_ASC_NODE":"38.8677","DECAY_DATE":null,"MEAN_MOTION_DOT":"-0.00001490","TIME_SYSTEM":"UTC","CENTER_NAME":"EARTH","OBJECT_NAME":"STARLINK-2414","MEAN_ANOMALY":"299.5619","TLE_LINE1":"1 48095U 21027D   22115.78922818 -.00001490  00000-0 -81142-4 0  9990"},{"NORAD_CAT_ID":"48096","OBJECT_ID":"2021-027E","SEMIMAJOR_AXIS":"6925.365","REV_AT_EPOCH":"5926","PERIOD":"95.592","REF_FRAME":"TEME","ARG_OF_PERICENTER":"63.8229","INCLINATION":"53.0550","LAUNCH_DATE":"2021-04-07","BSTAR":"0.00002638200000","EPOCH":"2022-04-25T11:57:10.579104","ECCENTRICITY":"0.00014650","ELEMENT_SET_NO":"999","COUNTRY_CODE":"US","MEAN_ELEMENT_THEORY":"SGP4","MEAN_MOTION_DDOT":"0.0000000000000","OBJECT_TYPE":"PAYLOAD","EPHEMERIS_TYPE":"0","APOAPSIS":"548.244","MEAN_MOTION":"15.06394798","FILE":"3415659","SITE":"AFETR","CLASSIFICATION_TYPE":"U","TLE_LINE1":"1 48096U 21027E   22115.49803911  .00000111  00000-0  26382-4 0  9993","OBJECT_NAME":"STARLINK-2417","MEAN_ANOMALY":"296.2911","CENTER_NAME":"EARTH","MEAN_MOTION_DOT":"0.00000111","TIME_SYSTEM":"UTC","DECAY_DATE":null,"RA_OF_ASC_NODE":"40.1770","PERIAPSIS":"546.215","TLE_LINE2":"2 48096  53.0550  40.1770 0001465  63.8229 296.2911 15.06394798 59266","GP_ID":"201992428","RCS_SIZE":"LARGE"},{"CENTER_NAME":"EARTH","MEAN_MOTION_DOT":"-0.00001350","TIME_SYSTEM":"UTC","DECAY_DATE":null,"TLE_LINE1":"1 48097U 21027F   22115.14602744 -.00001350  00000-0 -71750-4 0  9994","MEAN_ANOMALY":"275.6589","OBJECT_NAME":"STARLINK-2418","RCS_SIZE":"LARGE","RA_OF_ASC_NODE":"21.7646","PERIAPSIS":"546.176","GP_ID":"201992678","TLE_LINE2":"2 48097  53.0547  21.7646 0001478  84.4569 275.6589 15.06404634 59498","OBJECT_TYPE":"PAYLOAD","EPHEMERIS_TYPE":"0","MEAN_MOTION":"15.06404634","SITE":"AFETR","FILE":"3415659","CLASSIFICATION_TYPE":"U","APOAPSIS":"548.223","ECCENTRICITY":"0.00014780","ELEMENT_SET_NO":"999","LAUNCH_DATE":"2021-04-07","BSTAR":"-0.00007175000000","EPOCH":"2022-04-25T03:30:16.770816","MEAN_MOTION_DDOT":"0.0000000000000","COUNTRY_CODE":"US","MEAN_ELEMENT_THEORY":"SGP4","SEMIMAJOR_AXIS":"6925.334","REV_AT_EPOCH":"5949","NORAD_CAT_ID":"48097","OBJECT_ID":"2021-027F","REF_FRAME":"TEME","ARG_OF_PERICENTER":"84.4569","INCLINATION":"53.0547","PERIOD":"95.592"}];
